[{"OBJECT_NAME":"STARLINK-30320","OBJECT_ID":"2023-124R","EPOCH":"2026-03-09T15:49:44.966208","MEAN_MOTION":15.30185437,"ECCENTRICITY":0.00013195,"INCLINATION":53.1622,"RA_OF_ASC_NODE":194.1885,"ARG_OF_PERICENTER":98.2342,"MEAN_ANOMALY":261.8808,"EPHEMERIS_TYPE":0,"CLASSIFICATION_TYPE":"U","NORAD_CAT_ID":57678,"ELEMENT_SET_NO":999,"REV_AT_EPOCH":14374,"BSTAR":1.9252015e-5,"MEAN_MOTION_DOT":2.11e-6,"MEAN_MOTION_DDOT":0},{"OBJECT_NAME":"USA 55","OBJECT_ID":"1990-028B","EPOCH":"2026-03-09T23:32:27.967200","MEAN_MOTION":15.43003152,"ECCENTRICITY":0.00579189,"INCLINATION":94.0887,"RA_OF_ASC_NODE":87.6293,"ARG_OF_PERICENTER":152.9949,"MEAN_ANOMALY":207.4341,"EPHEMERIS_TYPE":0,"CLASSIFICATION_TYPE":"U","NORAD_CAT_ID":20547,"ELEMENT_SET_NO":999,"REV_AT_EPOCH":98658,"BSTAR":0.00013659834,"MEAN_MOTION_DOT":6.373e-5,"MEAN_MOTION_DDOT":0}]
